CZ-2D R/B               
1 28738U 05024B   26121.79707685  .00048921  00000+0  49853-3 0  9995
2 28738  97.3528 139.0747 0005569 155.9876 204.1644 15.64959250148078
ALOS (DAICHI)           
1 28931U 06002A   26121.87233084  .00001168  00000+0  20322-3 0  9995
2 28931  98.1295  77.5969 0002030  98.4082 261.7354 14.69953705 81295
H-2A R/B                
1 28932U 06002B   26121.37809225  .00010916  00000+0  52953-3 0  9993
2 28932  98.2505 273.0112 0052153  63.0739 297.5807 15.17483710102429
RESURS-DK 1             
1 29228U 06021A   26121.89210686  .00002543  00000+0  14970-3 0  9991
2 29228  69.9319  99.3725 0003866 333.7897  26.3072 15.13019234 95575
CZ-4B R/B               
1 29507U 06046C   26121.83431126  .00004705  00000+0  23524-3 0  9993
2 29507  97.5492 166.5881 0034552  83.9837 276.5332 15.17410571 68108
CZ-2C R/B               
1 31114U 07010B   26121.84533257  .00000110  00000+0  69240-4 0  9993
2 31114  98.4044 232.4756 0059859 138.8850 221.6861 14.20264225987265
COSMO-SKYMED 1          
1 31598U 07023A   26121.81336179  .00004063  00000+0  35936-3 0  9999
2 31598  97.8866 313.2837 0001852  95.4221 264.7211 14.96880283 22857
COSMOS 2428             
1 31792U 07029A   26121.63096468 -.00000210  00000+0 -86901-4 0  9996
2 31792  70.9394  92.2190 0008780 217.0388 143.0128 14.12943761971577
SL-16 R/B               
1 31793U 07029B   26121.87153353  .00000270  00000+0  16463-3 0  9999
2 31793  70.9765  60.5889 0002545 268.3290 151.8484 14.14848705972899
KORONAS-FOTON           
1 33504U 09003A   26121.77643910  .00012720  00000+0  27097-3 0  9995
2 33504  82.4321 220.6294 0009327 328.2774  31.7910 15.44738775953937
CZ-2C R/B               
1 37731U 11030B   26121.84072105  .00000999  00000+0  13168-3 0  9993
2 37731  97.8625  78.0780 0052425 175.7536 245.6495 14.81368521797964
H-2A R/B                
1 38341U 12025E   26121.79245100  .00003216  00000+0  29091-3 0  9994
2 38341  98.4798  93.1337 0045267 137.6937 222.7788 14.95470415756152
SHIJIAN-16 (SJ-16)      
1 39358U 13057A   26121.85482209  .00001921  00000+0  18953-3 0  9995
2 39358  74.9707  84.4247 0016463 337.8687  22.1788 14.92491120679435
SL-4 R/B                
1 39679U 14021B   26121.83737351  .00014829  00000+0  31401-3 0  9996
2 39679  51.6057  77.6460 0092358 297.4120  61.7492 15.40859960664464
ALOS-2                  
1 39766U 14029A   26121.81066000  .00001292  00000+0  17983-3 0  9994
2 39766  97.9212 219.6375 0001658  84.5841 275.5560 14.79480672644727
YAOGAN-29               
1 41038U 15069A   26121.82660576  .00000291  00000+0  42373-4 0  9993
2 41038  98.0064 150.3797 0002089 130.9417 229.1977 14.83045341563757
ASTRO-H (HITOMI)        
1 41337U 16012A   26121.84099598  .00003061  00000+0  17647-3 0  9999
2 41337  31.0009  13.4595 0009416 147.6079 212.5139 15.10312067560273
HXMT (HUIYAN)           
1 42758U 17034A   26121.88518115  .00005362  00000+0  26660-3 0  9998
2 42758  43.0138  80.7752 0032338 213.5790 146.3009 15.18048950490627
SAOCOM 1A               
1 43641U 18076A   26121.82380560  .00001137  00000+0  14931-3 0  9996
2 43641  97.8892 309.2451 0001618  90.3771 269.7628 14.82162109409232
H-2A R/B                
1 43682U 18084L   26121.73349977  .00022739  00000+0  50473-3 0  9999
2 43682  98.8643 350.5323 0023728 195.7678 164.2829 15.43448295413958
SAOCOM 1B               
1 46265U 20059A   26121.78756896  .00000011  00000+0  79639-5 0  9997
2 46265  97.8886 308.3025 0001558  80.9044 279.2346 14.82151099306615
CSS (TIANHE)            
1 48274U 21035A   26121.78450867  .00021864  00000+0  23571-3 0  9994
2 48274  41.4675 244.4722 0005904 312.5812  47.4529 15.63133362285918
COSMOS 2550             
1 48865U 21056A   26121.53108228 -.00000108  00000+0  25386-5 0  9994
2 48865  67.1429 241.0371 0008262 269.5318  90.4890 15.33829069271569
CZ-2C R/B               
1 52794U 22058K   26121.74202509  .00051283  00000+0  64345-3 0  9998
2 52794  50.1881  44.5546 0037752  68.5177 291.9814 15.58303677218390
CZ-2C R/B               
1 54039U 22132E   26121.52862690  .00050318  00000+0  47596-3 0  9991
2 54039  97.2926 126.6489 0013233 245.4720 114.5161 15.66729862198638
GSLV R/B                
1 54149U 22138AN  26121.79845325  .00002413  00000+0  20636-3 0  9993
2 54149  87.3801 148.5638 0019609 324.4932  35.4993 14.97052763191872
XRISM                   
1 57800U 23137A   26121.72391480  .00006230  00000+0  34758-3 0  9992
2 57800  31.0022 300.4777 0007606 215.8680 144.1449 15.12068262145827
ACS3                    
1 59588U 24077B   26121.80501745  .00031099  00000+0  24036-1 0  9994
2 59588  97.1802  50.9856 0054928 342.9651  16.9669 13.91897329101589
HTV-X1                  
1 66174U 25241A   26121.43629956  .00015236  00000+0  16887-3 0  9993
2 66174  51.6347 176.7965 0007296  12.8755 347.2425 15.63161916 29035
SZ-21 MODULE            
1 66515U 25246C   26121.65728473  .00047358  00000+0  34162-3 0  9991
2 66515  41.4737 236.2778 0003313   3.4411 356.6454 15.72691585 26403

ISS (ZARYA)             
1 25544U 98067A   26121.81277072  .00006771  00000+0  13067-3 0  9996
2 25544  51.6311 169.6452 0007227  12.7206 347.3964 15.49051775564564
POISK                   
1 36086U 09060A   26121.81277072  .00006771  00000+0  13067-3 0  9994
2 36086  51.6311 169.6452 0007227  12.7206 347.3964 15.49051775564602
CSS (TIANHE)            
1 48274U 21035A   26121.78450867  .00021864  00000+0  23571-3 0  9994
2 48274  41.4675 244.4722 0005904 312.5812  47.4529 15.63133362285918
ISS (NAUKA)             
1 49044U 21066A   26121.81277072  .00006771  00000+0  13067-3 0  9992
2 49044  51.6311 169.6452 0007227  12.7206 347.3964 15.49051775564644
FREGAT DEB              
1 49271U 11037PF  26121.76548619  .00009591  00000+0  14791-1 0  9999
2 49271  51.6390 141.3647 0936859 180.8838 179.0382 12.41182830219283
CSS (WENTIAN)           
1 53239U 22085A   26121.78636292  .00064662  00000+0  69156-3 0  9997
2 53239  41.4673 244.4872 0002651 316.4098  43.6532 15.62947361286255
CSS (MENGTIAN)          
1 54216U 22143A   26121.78450867  .00021864  00000+0  23571-3 0  9998
2 54216  41.4675 244.4722 0005904 312.5812  47.4529 15.63133362286091
TIANZHOU-9              
1 64786U 25149A   26121.78450867  .00021864  00000+0  23571-3 0  9990
2 64786  41.4675 244.4722 0005904 312.5812  47.4529 15.63133362286106
HRC MONOBLOCK CAMERA    
1 66052U 98067XR  26121.82268169  .00053946  00000+0  47745-3 0  9999
2 66052  51.6249 156.1909 0005086   1.1197 358.9810 15.68066084 30716
HTV-X1                  
1 66174U 25241A   26121.43629956  .00015236  00000+0  16887-3 0  9993
2 66174  51.6347 176.7965 0007296  12.8755 347.2425 15.63161916 29035
SZ-21 MODULE            
1 66515U 25246C   26121.65728473  .00047358  00000+0  34162-3 0  9991
2 66515  41.4737 236.2778 0003313   3.4411 356.6454 15.72691585 26403
SHENZHOU-22             
1 66645U 25272A   26121.78450867  .00021864  00000+0  23571-3 0  9993
2 66645  41.4675 244.4722 0005904 312.5812  47.4529 15.63133362286113
SOYUZ-MS 28             
1 66664U 25275A   26121.81277072  .00006771  00000+0  13067-3 0  9995
2 66664  51.6311 169.6452 0007227  12.7206 347.3964 15.49051775564887
DUPLEX                  
1 66906U 98067XS  26121.82654734  .00022913  00000+0  28905-3 0  9991
2 66906  51.6275 162.9838 0005500   7.7381 352.3696 15.59469302 23416
ISS OBJECT XT           
1 66907U 98067XT  26121.77731916  .00962563  48286-3  15242-2 0  9999
2 66907  51.6137 149.7423 0009784  23.6556 336.4903 16.03161980 23589
ISS OBJECT XU           
1 66908U 98067XU  26121.32615316  .01009122  53533-3  16072-2 0  9993
2 66908  51.6137 151.9756 0010270  21.9446 338.2003 16.03065879 23519
ISS OBJECT XW           
1 66910U 98067XW  26121.29976999  .00602730  15796-3  16408-2 0  9994
2 66910  51.6137 153.3201 0010809  19.1703 340.9709 15.93467099 23494
ISS OBJECT XY           
1 66912U 98067XY  26121.81088258  .00138316  00000+0  86447-3 0  9999
2 66912  51.6225 156.0838 0008322  18.5361 341.5941 15.75870605 23496
KNACKSAT-2              
1 67683U 98067XZ  26121.39473065  .00052169  00000+0  73373-3 0  9997
2 67683  51.6293 169.1056 0012649  24.1266 336.0316 15.56061539 12982
CORAL                   
1 67684U 98067YA  26121.83865441  .00099491  00000+0  10242-2 0  9994
2 67684  51.6255 164.5624 0016563  20.7816 339.3848 15.63884788 13088
GXIBA-1                 
1 67685U 98067YB  26121.81848060  .00045829  00000+0  62336-3 0  9999
2 67685  51.6282 166.6836 0014631  23.5653 336.6006 15.56987393 13052
UITMSAT-2               
1 67686U 98067YC  26121.83820752  .00054772  00000+0  69648-3 0  9990
2 67686  51.6281 166.0699 0011700   6.3944 353.7196 15.58751642 13068
HMU-SAT2                
1 67687U 98067YD  26121.83013253  .00041719  00000+0  57729-3 0  9995
2 67687  51.6290 166.7676 0010859   6.8988 353.2151 15.56624708 12973
LEOPARD                 
1 67688U 98067YE  26121.34526450  .00070723  00000+0  92511-3 0  9995
2 67688  51.6286 168.7793 0011223   4.4717 355.6374 15.57899001 12908
CREW DRAGON 12          
1 67796U 26031A   26121.81277072  .00006771  00000+0  13067-3 0  9993
2 67796  51.6311 169.6452 0007227  12.7206 347.3964 15.49051775564761
PROGRESS-MS 33          
1 68319U 26058A   26121.81277072  .00006771  00000+0  13067-3 0  9994
2 68319  51.6311 169.6452 0007227  12.7206 347.3964 15.49051775  6270
CYGNUS NG-24            
1 68689U 26079A   26121.23215145  .00007946  00000+0  15194-3 0  9994
2 68689  51.6312 172.5179 0007183  10.5209 349.5928 15.49045666  3138
PROGRESS-MS 34          
1 68837U 26093A   26121.23215145  .00007946  00000+0  15194-3 0  9995
2 68837  51.6312 172.5179 0007183  10.5209 349.5928 15.49045666   635
